{"type":"Topology","arcs":[[[39945,6509],[-80,-49],[-40,-37],[-152,-93],[-70,-37],[-88,-21],[-81,-48],[-85,-34],[-82,-16],[-131,-7],[-106,18],[-65,27],[-62,-22],[-48,-32],[-116,-118],[-69,-29],[-84,-60],[-33,-14],[-35,-52],[-67,-39],[-122,-26],[-55,-47],[-29,-45],[-38,-127],[-19,-116],[-21,-12],[-47,-68],[-6,-44],[-60,-49],[-78,-10],[-27,-46],[-41,-8],[-22,67],[-22,10],[-50,-20],[-31,9],[-75,-16],[-5,-27],[-59,24],[-27,-5],[-43,-52],[-29,31],[-31,75],[-28,-2],[-43,-36],[-43,21],[-21,-11],[-33,31],[-69,3],[-59,-29],[-24,14],[-44,-15],[-139,-12],[-52,-43],[-84,21],[-62,3],[-68,-32],[-82,-85],[-33,-79],[3,-40],[-36,-44],[-92,-18],[-64,15],[-20,-33],[-52,-28],[-7,-49],[-79,-38],[-32,-59],[-1,-45],[-42,-2],[-50,-41],[-94,-21],[-14,-25],[-44,14],[-50,-25],[-63,37],[-65,6],[-95,-21],[-38,16],[-46,-3],[-67,14],[-75,68],[-80,26],[-30,58],[-65,99],[-47,52],[-96,72],[-53,6],[-26,-23],[-32,45],[-16,98],[-5,218],[31,79],[25,-43],[58,-19],[52,30],[29,46],[42,116],[10,6],[3,143],[-26,198],[59,33],[-19,35],[11,45],[-11,83],[15,64],[-11,71],[6,70],[-22,152],[-79,188],[-49,170],[-46,89],[-28,106],[-44,229],[5,37],[-16,62],[9,71],[-8,133],[12,97],[-29,134],[-22,77],[-63,98],[-26,70],[4,70],[-20,73],[-38,66],[-39,93],[-50,67],[-24,157],[16,72],[-24,131],[-22,72],[-86,216],[-60,133],[-102,151],[-19,86],[27,64],[15,-58],[30,16],[16,-69],[19,-32],[16,-73],[34,-52],[55,38],[12,28],[-1,82],[-36,55],[-34,11],[-37,72],[-7,81],[-47,116],[0,40],[39,20],[79,-156],[-9,-17],[-11,-116],[32,-32],[18,47],[31,-39],[12,-76],[46,-63],[36,39],[10,32],[-15,66],[23,113],[0,80],[-36,28],[-9,41],[-28,37],[-42,108],[-44,151],[-31,26],[-35,126],[-3,90],[-57,107],[-17,65],[-2,89],[17,43],[-7,66],[16,76],[35,92],[14,59],[48,58],[15,109],[-12,90],[23,60],[-2,66],[-17,77],[-35,34],[-4,81],[30,54],[25,81],[33,153],[39,104],[51,37],[-28,-209],[33,-78],[-21,-87],[24,-24],[37,43],[28,-19],[9,65],[36,106],[9,52],[43,123],[98,81],[62,16],[41,36],[80,46],[52,93],[71,59],[45,96],[75,49],[23,69],[17,-11],[58,22],[53,48],[55,64],[47,-52],[64,50],[47,-34],[54,-24],[56,12],[31,26],[25,-8],[57,30],[36,68],[67,71],[82,0],[82,29],[34,-5],[45,31],[44,86],[5,29],[33,37],[50,12],[57,-19],[66,-40],[82,56],[152,32],[144,79],[105,70],[84,88],[41,65],[72,155],[43,141],[0,51],[44,32],[2,61],[17,52],[30,-7],[39,43],[69,102],[36,26],[13,82],[-57,30],[3,127],[-22,81],[2,121],[8,44],[38,66],[-2,27],[48,64],[59,9],[-18,45],[14,46],[47,1],[18,100],[45,50],[10,52],[32,23],[-6,-84],[-11,-28],[67,-124],[-3,-58],[41,-55],[49,-172],[12,-8],[41,-95],[5,86],[27,96],[-23,50],[20,56],[70,-77],[-15,72],[38,77],[-47,-11],[-26,81],[-45,62],[31,72],[-1,68],[-39,51],[19,60],[62,-4],[-14,-52],[36,-60],[53,45],[48,8],[34,-68],[42,-6],[20,30],[25,-22],[42,-5],[1,41],[-64,-6],[-12,67],[18,40],[32,-19],[24,45],[7,156],[-33,-89],[-39,52],[-9,103],[9,69],[35,50],[44,-20],[23,71],[0,41],[35,4],[43,-38],[45,-74],[14,82],[-18,36],[-38,-31],[-21,48],[-10,59],[23,22],[76,28],[32,-4],[33,-51],[22,24],[-7,61],[-26,1],[-26,33],[10,39],[-31,72],[47,54],[65,57],[41,-1],[11,69],[-11,79],[38,-13],[-12,-44],[29,-46],[28,-9],[2,-61],[33,30],[41,5],[-19,69],[26,17],[4,68],[24,17],[-3,55],[-21,37],[6,55],[21,-4],[14,-124],[20,-34],[49,119],[39,4],[24,-108],[47,42],[-1,60],[40,36],[-24,82],[71,37],[41,-57],[13,-68],[75,19],[33,-13],[25,-64],[61,-65],[32,-58],[11,-45],[41,-71],[94,-109],[6,-68],[-16,-6],[-28,-159],[55,-74],[-10,111],[41,83],[36,-73],[-5,118],[45,38],[105,-48],[58,-15]],[[39945,15678],[0,-570],[0,-379],[0,-380],[0,-379],[0,-379],[0,-379],[0,-379],[0,-379],[0,-380],[0,-379],[0,-568],[0,-569],[0,-569],[0,-379]],[[39945,9610],[0,-388],[0,-582],[0,-388],[0,-388],[0,-581],[0,-388],[0,-386]],[[34451,9573],[-21,7],[-38,63],[-28,79],[-16,89],[0,59],[31,15],[15,-121],[57,-191]],[[35234,12483],[-9,-49],[-26,-31],[-19,40],[31,59],[23,-19]],[[38620,15895],[0,-69],[-36,-6],[11,69],[25,6]],[[39945,15678],[60,-53],[1,-51],[30,-26],[-14,143],[36,-10],[53,-39],[42,-100],[21,15],[-16,80],[11,56],[28,27],[-41,65],[-8,58],[-79,85],[5,44],[42,101],[1,30],[77,40],[-1,73],[36,65],[-11,47],[18,90],[46,-11],[68,53],[38,63],[-39,80],[-15,8],[4,118],[41,1],[36,52],[-2,81],[81,69],[15,71],[56,1],[0,-37],[21,-30],[14,58],[-20,28],[25,36],[44,-14],[-8,103],[40,9],[35,-33],[39,16],[27,-46],[30,-15],[102,15],[42,28],[49,-48],[77,69],[54,-28],[6,42],[48,33],[17,28],[8,97],[-20,44],[36,71],[-35,18],[-35,79],[-44,23],[-43,-11],[-56,-35],[-79,117],[29,29],[26,61],[22,-29],[12,-52],[26,-35],[19,85],[38,27],[11,-37],[32,-11],[69,-150],[30,9],[53,88],[35,-55],[45,-132],[42,-30],[29,22],[46,-55],[50,-24],[21,35],[42,30],[35,-13],[-21,-64],[35,-31],[22,17],[44,-3],[20,-71],[33,27],[34,-41],[49,-12],[28,9],[35,48],[22,7],[33,-97],[36,-11],[36,-62],[66,20],[15,52],[30,20],[25,-12],[26,18],[12,46],[59,29],[17,-26],[-8,-45],[-40,-50],[7,-40],[33,-11],[40,58],[51,-87],[-14,-28],[13,-51],[80,8],[39,101],[-18,30],[-46,7],[41,75],[53,59],[29,-28],[19,-98],[35,-60],[65,33],[25,-72],[-30,-43],[-42,-23],[1,-39],[-23,-67],[-71,-66],[5,-32],[52,-57],[-49,-11],[24,-45],[-40,-87],[-29,12],[1,71],[-23,-14],[1,-39],[-45,-40],[-26,42],[-18,-47],[-59,-44],[13,-28],[-23,-43],[-3,-79],[32,-82],[24,-26],[-5,-56],[-24,-32],[-7,-96],[-50,-70],[-29,-77],[-18,-14],[-32,-81],[-3,-39],[-46,-48],[27,-114],[29,-38],[35,-13],[20,-30],[53,-43],[31,-48],[100,-87],[10,-66],[28,-37],[24,-5],[39,-53],[29,-19],[54,-80],[48,-19],[30,39],[19,-32],[71,-53],[39,-56],[66,-27],[68,-43],[42,-101],[46,-57]],[[43077,14766],[0,-490],[0,-322],[0,-322],[0,-482],[0,-322],[0,-322],[0,-322],[0,-482],[0,-322],[0,-322],[0,-322],[0,-322],[0,-482],[0,-322]],[[43077,9610],[-294,0],[-195,0],[-392,0],[-391,0],[-294,0],[-392,0],[-391,0],[-196,0],[-294,0],[-293,0]],[[42756,15197],[-27,-20],[-20,65],[20,29],[29,-20],[-2,-54]],[[42595,15312],[-9,-52],[-24,-4],[2,59],[31,-3]],[[42481,16312],[-9,-48],[-38,12],[20,60],[27,-24]],[[42712,16052],[-17,-64],[-59,24],[-33,-13],[-62,34],[-18,120],[8,65],[57,36],[-5,71],[36,-21],[12,-60],[27,-13],[-2,-35],[-26,-79],[3,-67],[30,15],[21,-27],[28,14]],[[40480,17402],[34,-34],[-22,-34],[-27,-5],[-61,38],[-60,-30],[-33,1],[4,72],[48,20],[-19,90],[43,82],[27,0],[18,-51],[-1,-56],[22,-31],[-4,-56],[31,-6]],[[40828,17561],[-19,-33],[-18,-72],[-19,12],[-29,-76],[-68,-57],[-41,-53],[-93,69],[-75,82],[-6,57],[-18,33],[-22,137],[12,43],[37,-67],[23,1],[41,-81],[12,21],[42,13],[15,26],[42,-23],[50,58],[42,32],[20,-29],[34,-3],[16,-77],[22,-13]],[[41159,17699],[22,70],[21,-42],[-11,-24],[16,-50],[-22,-36],[-26,82]],[[43077,9610],[261,0],[261,0],[261,0],[261,0],[0,-613],[0,-614],[0,-408]],[[44121,7975],[0,-514],[0,-343],[0,-342],[0,-342],[0,-514],[0,-343],[0,-338]],[[44121,5239],[-11,17],[0,-316],[0,-544],[0,-273],[0,-545],[0,-542]],[[44110,3036],[-89,-6],[-38,18],[-85,85],[-41,118],[-36,38],[-8,42],[-44,17],[-67,119],[-19,48],[16,30],[-40,94],[39,28],[28,73],[-4,80],[-100,298],[-38,64],[6,33],[-100,112],[-51,48],[33,57],[34,-27],[4,-80],[33,4],[6,51],[-48,47],[55,24],[-26,58],[-27,21],[-42,-38],[-49,-14],[2,-33],[-30,-47],[-47,12],[-38,-15],[-37,-43],[-124,-12],[-18,61],[57,47],[49,64],[15,75],[-2,57],[15,29],[-8,100],[18,72],[-34,36],[-63,129],[-11,64],[-52,105],[-21,-54],[7,-44],[-37,-58],[-17,-96],[10,-18],[-57,-237],[0,-41],[-26,-26],[-39,27],[-55,4],[-57,-26],[-24,-38],[-45,8],[-30,-31],[-41,20],[43,82],[-6,32],[31,75],[37,-14],[45,12],[43,-27],[19,20],[23,163],[-18,93],[11,102],[-13,53],[35,50],[-8,31],[29,40],[-5,35],[40,49],[21,51],[54,42],[2,48],[-44,146],[16,38],[65,36],[-30,66],[-19,118],[-35,26],[2,-65],[-29,-71],[-17,18],[-78,-100],[-22,-84],[-4,-52],[-53,-144],[-24,-29],[-47,-13],[-19,25],[-55,-68],[-70,-51],[-9,-25],[-74,-68],[-47,-128],[-41,-41],[3,-38],[-65,-44],[-26,-90],[52,-153],[-94,65],[-48,-11],[-61,91],[-11,131],[-18,108],[-25,87],[-5,64],[-24,57],[-118,139],[6,51],[-19,105],[-53,69],[-75,39],[-39,-28],[-19,23],[-31,118],[-45,20],[25,41],[-20,66],[68,-10],[1,79],[-44,71],[-102,-40],[2,39],[31,38],[-48,77],[-41,32],[-4,36],[-33,11],[-12,-38],[-46,21],[-3,-42],[-92,8],[-32,48],[-42,26],[-48,57],[-73,12],[-39,-11],[3,-39],[-87,-4],[-54,68],[-103,99],[-86,66],[-125,70],[-119,-68],[-236,15],[-245,-37],[-88,-8],[-69,-17]],[[43122,4259],[-28,-56],[-41,24],[-61,2],[-50,-29],[3,-41],[-56,-45],[-31,39],[-55,17],[-25,-34],[-42,11],[-59,-5],[-47,-18],[-21,49],[-43,34],[31,87],[64,24],[94,20],[97,47],[29,-14],[65,15],[-15,-78],[37,-17],[77,15],[54,-17],[23,-30]],[[43077,14766],[64,-85],[45,-29],[62,-24],[58,8],[33,-34],[99,-40],[9,-34],[33,-30],[-6,-46],[24,-92],[22,-34],[58,-15],[70,-85],[57,-20],[42,-29],[26,-46],[84,2],[93,36],[86,86],[27,15],[17,57],[27,149],[-4,30],[88,172],[12,71],[24,71],[16,119],[26,77],[-16,79],[8,19],[13,138],[17,93],[52,184],[10,71],[-22,73],[-28,215],[24,130],[-3,92],[-34,69],[-4,94],[30,155],[33,76],[12,51],[-19,54],[-17,100],[15,36],[44,50],[19,83],[0,45],[-50,78],[0,-56],[-25,10],[55,173],[17,83],[24,49],[16,-55],[21,14],[-10,79],[64,304],[10,102],[-5,92],[10,29],[52,15],[27,45],[16,57],[35,4],[23,-21],[-23,-50],[30,-51],[37,-24],[17,-60],[4,-105],[24,-62],[-17,-47],[13,-69],[5,-134],[35,-41],[52,8],[28,-39],[-41,-91],[-3,-98],[38,-7],[23,-26],[25,-92],[38,-30],[-24,-104],[5,-26],[41,-2],[2,-120],[8,-138],[24,-58],[-21,-180],[29,-104],[24,-32],[7,-106],[27,-105],[26,-40],[32,-13],[41,26],[32,43],[9,60],[41,-27],[50,37],[23,39],[25,-50],[-2,-54],[14,-65],[20,-40],[73,-29],[19,-64],[25,-31],[49,-29],[43,-60],[-15,-119],[24,-65],[-17,-57],[7,-80],[32,-116],[-4,-84],[37,-86],[-10,-76],[10,-40],[-16,-33],[-5,-60],[22,-20],[40,-104],[28,-31],[41,-86],[57,-24],[-21,-60],[25,-67],[5,-43],[36,-82],[-1,-67],[28,-64],[-16,-40],[-2,-123],[-32,-122],[7,-59],[26,-47],[29,-16],[11,-61],[43,-19],[-16,-101],[-5,-89],[19,-46],[40,-55],[72,-67],[32,6],[55,-72],[26,11],[66,-63],[88,-7],[45,-59],[15,-63],[-1,-47],[32,-58],[36,-4],[-12,79],[33,-24],[4,-49],[32,-45],[43,17],[20,-33],[43,-15],[18,-38],[-14,-27],[65,-60],[-3,49],[43,24],[15,-84],[63,-40],[20,-73],[26,-28],[-70,-15],[-24,-30],[23,-43],[7,-46],[28,-23],[31,-61],[21,1],[26,-60],[37,-8],[28,-51],[-12,-50],[10,-50],[23,-26],[22,-95],[26,-49],[17,-73],[-15,-39],[17,-88],[43,-160],[34,-76],[-4,-57],[48,55],[17,-43],[49,-47],[-34,139],[23,74],[22,11],[35,-68],[21,-70],[30,-13],[74,-64],[19,116],[24,-10],[42,-77],[-1,-69],[25,-48],[-18,-147],[-4,-104],[24,-64],[-16,-18],[25,-115],[59,-33],[34,-52],[22,-70],[31,-11],[44,-69],[62,-58],[35,-3],[34,22],[11,-65],[42,-38],[44,-165],[32,-57],[54,-58],[34,-13],[31,-54],[5,-83],[59,-132],[83,-25],[8,-102],[-15,-116],[79,-134],[27,-8],[-20,-62],[-23,-119],[13,-96],[-1,-104],[14,-20],[1,-131],[18,-66],[-43,-35],[-15,-35],[26,-37],[-17,-37],[30,-23],[20,-62],[35,-61],[2,-42],[46,-85],[1,-143],[20,-42]],[[48474,8438],[-43,-48],[-66,-12],[-27,-49],[-94,13],[-33,-18],[-74,22],[-16,31],[-47,-62],[-67,-34],[-69,-54],[35,-91],[-15,-94],[-32,-26],[-59,-13],[-12,32],[-61,-36],[-45,-109],[-38,30],[-10,98],[-36,34],[-37,11],[-11,56],[-87,54],[-60,-13],[-60,7],[-53,61],[-97,-35],[-90,-4],[-19,-11],[-45,30],[-32,-7],[-24,-52],[-49,-32],[-63,-60],[-11,-48],[-32,-34],[-238,0],[-338,0],[-169,0],[-338,0],[-169,0],[-338,0],[-170,0],[-338,0],[-338,0],[-338,0]],[[48467,8838],[8,-48],[-35,-68],[-4,74],[31,42]],[[48441,8880],[-12,50],[-6,99],[37,3],[-14,-66],[-5,-86]],[[48426,10161],[-35,-145],[-38,-113],[-26,-111],[-30,-34],[-17,96],[41,122],[-10,79],[38,38],[27,47],[5,62],[-27,55],[41,65],[0,-90],[31,-71]],[[47695,10882],[10,-45],[-29,-16],[-19,46],[-63,113],[14,18],[60,-33],[27,-83]],[[46929,12709],[-34,-4],[-13,24],[13,62],[34,-82]],[[45972,13762],[-9,-60],[-24,15],[-8,49],[-27,71],[54,-23],[14,-52]],[[43621,14495],[2,-34],[-43,-4],[22,63],[19,-25]],[[43681,14819],[-44,-59],[-20,38],[-30,-46],[-7,-53],[-50,-33],[-57,15],[29,94],[23,29],[110,40],[46,-25]],[[44558,17968],[-1,-27],[-35,-21],[-12,56],[33,30],[15,-38]],[[44571,18256],[17,-28],[-18,-38],[-31,22],[5,36],[27,8]],[[48474,8438],[19,-14],[10,-51],[-9,-105],[4,-70],[19,-39],[-9,-112],[-53,-92],[-10,-68],[-29,-88],[10,-41],[-15,-91],[-2,-73],[-21,-134],[-21,-50],[1,-51],[-19,-86],[-34,-102],[-22,-142],[6,-55],[29,-50],[-14,-36],[4,-46],[-27,-48],[-2,-84],[-21,-55],[7,-34],[-31,-47],[1,-41],[-21,-32],[-33,-99],[-29,-33],[-35,-118],[19,-24],[-13,-41],[-2,-80],[-99,-98],[-23,-42],[6,-40],[-88,-32],[-35,-26],[-57,-107],[-16,-71],[-42,-92],[-28,-92],[-28,-11],[-12,-79],[-6,-108],[-15,-61],[-31,-8],[3,-50],[-49,-50],[-36,-70],[-2,-85],[-41,-34],[28,-24],[-16,-104],[-28,-41],[8,-70],[-29,-21],[3,-52],[-31,-36],[-21,-15],[-21,-87],[-29,-51],[0,-39],[-36,-88],[-31,-28],[5,-50],[-27,-27],[3,-35],[-14,-106],[7,-92],[-22,-36],[-5,-98],[-47,-144],[-9,-53],[40,-160],[-24,-34],[8,-124]],[[47244,3335],[-376,238],[-235,149],[-33,9],[32,73],[-18,40],[-46,185],[5,36],[-17,61],[-98,66],[-55,-31],[-25,27],[-31,-11],[-31,-47],[-63,4],[-16,-32],[-52,-6],[-107,66],[-66,6],[-17,-35],[-58,-5],[-90,43],[-75,7],[-59,66],[-43,2],[-40,-20],[-41,14],[-73,-9],[-13,-15],[-28,-99],[-52,-32],[-48,38],[-63,83],[-34,87],[-50,41],[-28,50],[-35,17],[-77,75],[-64,31],[-4,61],[-61,38],[-27,118],[11,85],[-76,59],[-73,22],[-54,40],[-18,-10],[-29,-100],[-30,7],[-34,99],[-26,32],[-5,49],[13,48],[-52,45],[-8,44],[-49,12],[-24,32],[-48,-10],[-48,15],[-29,-13],[-34,-48],[-62,44],[-21,-6],[-31,37],[-68,8],[-16,24]],[[47027,4508],[-56,98],[-30,18],[-96,-91],[-19,-98],[7,-117],[54,-98],[37,-15],[18,48],[-7,118],[23,55],[12,70],[57,12]],[[47244,3335],[-65,-23],[-42,-80],[-65,-47],[-63,-7],[-123,5],[-77,-18],[-41,6],[-104,-6],[-136,-52],[-114,-89],[-67,-76],[-180,-231],[-162,-52],[-55,21],[-25,-30],[27,-33],[9,-51],[40,28],[18,-49],[-7,-76],[-59,51],[-29,69],[-31,27],[-30,-42],[-31,0],[-37,134],[-83,-6],[-43,60],[-6,59],[44,31],[-28,77],[-63,7],[-94,-143],[-48,7],[-29,56],[62,20],[48,100],[-3,58],[-29,30],[-16,53],[-55,1],[-7,-23],[-98,-78],[0,-52],[46,29],[25,-21],[-26,-66],[-87,-9],[-53,-54],[-69,-46],[-72,-112],[-49,-20],[-14,-35],[-44,-36],[-70,55],[-33,-3],[-63,69],[-87,31],[-54,58],[-89,57],[-61,-21],[-46,22],[-50,45],[-65,12],[-31,-12],[-25,-59],[-58,9],[-20,46],[-84,89],[-58,37]],[[45667,2896],[-31,-61],[-29,38],[19,26],[41,-3]],[[46557,217],[-46,49],[-26,-56],[-50,93],[83,21],[-16,72],[-53,4],[-36,40],[-38,-47],[-40,-9],[-10,-64],[-26,-39],[0,-77],[-55,-24],[-57,-107],[-3,-64],[-75,-9],[-69,52],[-72,2],[-96,26],[-16,56],[14,30],[-21,53],[-32,-17],[-40,45],[-10,41],[-51,75],[-25,3],[-41,102],[-14,65],[-31,30],[-21,190],[110,-98],[-20,55],[-64,79],[-25,117],[-51,64],[-47,77],[-20,89],[-25,54],[-10,60],[-30,62],[-2,77],[-24,46],[32,60],[-3,99],[103,-22],[52,-25],[201,-76],[28,-47],[43,-13],[104,-63],[73,-5],[206,103],[54,-16],[40,35],[55,-36],[53,88],[25,11],[53,-37],[33,22],[24,64],[78,-57],[43,-88],[-22,-82],[22,-93],[-18,-69],[11,-98],[-2,-66],[-16,-27],[23,-63],[-9,-74],[-54,28],[-25,-108],[-31,-66],[7,-106],[-24,-42],[6,-70],[-22,-55],[40,-48],[-14,-56],[12,-120]],[[46326,157],[11,-26],[-18,-61],[-58,0],[7,72],[50,55],[8,-40]],[[46707,1775],[19,-30],[-26,-34],[-40,30],[-74,-10],[-3,56],[95,23],[29,-35]],[[46563,1896],[-26,58],[-31,118],[4,36],[31,27],[74,-122],[46,-14],[-2,-54],[14,-62],[-9,-34],[-81,-10],[-20,57]],[[45202,2037],[2,-76],[-66,-52],[-12,87],[-17,18],[8,127],[30,26],[13,45],[34,-30],[15,-99],[-7,-46]]],"transform":{"scale":[0.0028732617090049964,0.00183446843879759],"translate":[14.228587511204637,-43.62900155999995]},"objects":{"aus_states":{"type":"GeometryCollection","geometries":[{"arcs":[[[0,1,2]],[[3]],[[4]],[[5]]],"type":"MultiPolygon","properties":{"name":"Western Australia","code":"WA"}},{"arcs":[[[6,7,8,-2]],[[9]],[[10]],[[11]],[[12]],[[13]],[[14]],[[15]]],"type":"MultiPolygon","properties":{"name":"Northern Territory","code":"NT"}},{"arcs":[[[-3,-9,16,17,18,19]],[[20]]],"type":"MultiPolygon","properties":{"name":"South Australia","code":"SA"}},{"arcs":[[[21,22,-17,-8]],[[23]],[[24]],[[25]],[[26]],[[27]],[[28]],[[29]],[[30]],[[31]],[[32]]],"type":"MultiPolygon","properties":{"name":"Queensland","code":"QLD"}},{"arcs":[[33,34,-18,-23],[35]],"type":"Polygon","properties":{"name":"New South Wales","code":"NSW"}},{"arcs":[[[36,-19,-35]],[[37]]],"type":"MultiPolygon","properties":{"name":"Victoria","code":"VIC"}},{"arcs":[[[38]],[[39]],[[40]],[[41]],[[42]]],"type":"MultiPolygon","properties":{"name":"Tasmania","code":"TAS"}},{"arcs":[[-36]],"type":"Polygon","properties":{"name":"Australian Capital Territory","code":"ACT"}}]}}}